FLOCK 2P-6              
1 41606U 16040H   17120.89505734  .00004257  00000-0  18987-3 0  9994
2 41606  97.4625 183.9758 0009793 233.4432 126.5903 15.21904028 47517
FLOCK 2P-11             
1 41608U 16040K   17120.90038261  .00002422  00000-0  10941-3 0  9998
2 41608  97.4622 183.9556 0009789 233.7899 126.2433 15.21895071 47452
FLOCK 2P-2              
1 41609U 16040L   17120.91682083  .00001584  00000-0  72608-4 0  9994
2 41609  97.4634 183.9551 0009729 233.2727 126.7616 15.21908762 47438
FLOCK 2P-9              
1 41610U 16040M   17120.73188582  .00004867  00000-0  21634-3 0  9990
2 41610  97.4621 183.7327 0009849 234.5577 125.4740 15.21949852 47287
FLOCK 2P-4              
1 41611U 16040N   17120.88952308  .00004990  00000-0  22199-3 0  9996
2 41611  97.4647 184.0764 0009934 244.1159 115.9053 15.21904905 47475
FLOCK 2P-10             
1 41612U 16040P   17120.86763335  .00002987  00000-0  13420-3 0  9996
2 41612  97.4653 184.1227 0009689 244.2485 115.7751 15.21901486 47472
FLOCK 2P-8              
1 41613U 16040Q   17120.88407222  .00004485  00000-0  19994-3 0  9996
2 41613  97.4649 184.0873 0009764 243.4955 116.5280 15.21891060 47473
FLOCK 2P-12             
1 41614U 16040R   17120.91147222  .00005673  00000-0  25196-3 0  9993
2 41614  97.4658 184.2421 0009465 242.8723 117.1548 15.21908387 47485
FLOCK 2P-7              
1 41615U 16040S   17120.87860652  .00004437  00000-0  19761-3 0  9996
2 41615  97.4645 184.0843 0009681 245.1602 114.8627 15.21933038 47472
FLOCK 2P-5              
1 41616U 16040T   17120.85674594  .00003964  00000-0  17698-3 0  9994
2 41616  97.4659 184.1616 0009478 242.8697 117.1572 15.21915319 47454
FLOCK 2P-1              
1 41617U 16040U   17120.91094599  .00003519  00000-0  15747-3 0  9992
2 41617  97.4660 184.2402 0009335 243.4094 116.6186 15.21916654 47482
FLOCK 2P-3              
1 41618U 16040V   17120.93882673  .00002125  00000-0  96356-4 0  9991
2 41618  97.4666 184.2000 0009399 243.4277 116.5996 15.21908531 47489
BEESAT-4                
1 41619U 16040W   17120.87893454  .00002027  00000-0  95661-4 0  9993
2 41619  97.4659 183.7171 0010957 227.8168 132.2137 15.20572511 35407
3CAT-2                  
1 41732U 16051B   17120.73777844  .00002364  00000-0  98057-4 0  9996
2 41732  97.3777  38.4355 0015916  81.3815   2.5290 15.24742188 39300
FLOCK 2E'-13            
1 41761U 98067KH  17120.82018892  .00012755  00000-0  16118-3 0  9998
2 41761  51.6383 268.9997 0006880  85.3037 274.8741 15.59914012 35519
FLOCK 2E'-14            
1 41762U 98067KJ  17120.81030667  .00012971  00000-0  16293-3 0  9996
2 41762  51.6398 268.9504 0006766  86.0299 274.1467 15.60056145 35515
FLOCK 2E'-16            
1 41763U 98067KK  17120.79411125  .00014518  00000-0  17910-3 0  9992
2 41763  51.6396 268.8372 0006119  96.8593 263.3097 15.60422148 35478
FLOCK 2E'-15            
1 41764U 98067KL  17120.82846968  .00012841  00000-0  16276-3 0  9995
2 41764  51.6396 269.0675 0006474  91.6518 268.5217 15.59828441 35477
FLOCK 2E'-18            
1 41769U 98067KM  17120.81542740  .00012619  00000-0  15984-3 0  9998
2 41769  51.6393 268.9744 0005526 113.4393 246.7182 15.59870173 35473
FLOCK 2E'-17            
1 41776U 98067KN  17120.80890140  .00012258  00000-0  15531-3 0  9992
2 41776  51.6403 268.9436 0005852 114.8422 245.3180 15.59894661 35461
FLOCK 2E'-19            
1 41777U 98067KP  17120.79987425  .00017318  00000-0  20065-3 0  9994
2 41777  51.6383 267.3588 0004690 115.0970 245.0511 15.61914014 35441
FLOCK 2E'-20            
1 41782U 98067KQ  17120.84364916  .00016373  00000-0  19420-3 0  9993
2 41782  51.6398 267.6678 0004733 109.8838 250.2666 15.61350832 35315
CANX-7                  
1 41788U 16059F   17120.83635253  .00000115  00000-0  31347-4 0  9994
2 41788  98.1697 182.9775 0028596 311.9523  47.9190 14.63693902 31662
ALSAT 1N                
1 41789U 16059G   17120.85483723  .00000209  00000-0  48922-4 0  9991
2 41789  98.1714 183.1169 0027261 305.6756  54.1889 14.64035583 31682
RAVAN                   
1 41849U 16067B   17120.89824638  .00001773  00000-0  15974-3 0  9992
2 41849  97.9510 198.1873 0010478  97.8249 262.4162 14.96883625 25434
CELTEE 1                
1 41850U 16067C   17120.72405963 -.00000148  00000-0 -76152-5 0  9996
2 41850  97.9504 197.9523 0010226  95.5293 264.7095 14.96518952 25408
OPTICUBE 04             
1 41851U 16067D   17120.86145211 -.00000192  00000-0 -11567-4 0  9996
2 41851  97.9501 198.0839 0010228  96.3196 263.9190 14.96461653 25425
AEROCUBE 8D             
1 41852U 16067E   17120.69923130  .00000868  00000-0  82437-4 0  9994
2 41852  97.9517 197.8493 0011458  96.8042 263.4483 14.96159859 25395
AEROCUBE 8C             
1 41853U 16067F   17120.90404944  .00000672  00000-0  65057-4 0  9998
2 41853  97.9516 198.0468 0011786  96.8935 263.3627 14.96124243 25427
PROMETHEUS 2-1          
1 41854U 16067G   17120.78288117  .00000310  00000-0  32943-4 0  9994
2 41854  97.9519 197.8957 0012004  97.0349 263.2237 14.96056060 25402
PROMETHEUS 2-3          
1 41855U 16067H   17120.91777267  .00000275  00000-0  29877-4 0  9991
2 41855  97.9519 198.0322 0012146  96.8707 263.3896 14.96047741 25424
LEMUR-2-XIAOQING        
1 41871U 16062C   17120.79222956  .00002612  00000-0  12723-3 0  9998
2 41871  51.6358 312.0946 0006550  76.4139  14.7876 15.21972522 23725
LEMUR-2-SOKOLSKY        
1 41872U 16062D   17120.92321921  .00002624  00000-0  12712-3 0  9997
2 41872  51.6416 311.3724 0005824  77.3956  64.7874 15.22143912 23735
LEMUR-2-ANUBHAVTHAKUR   
1 41873U 16062E   17120.82478881  .00002256  00000-0  11359-3 0  9992
2 41873  51.6386 312.2158 0007771  77.3668  48.3539 15.21430325 23705
LEMUR-2-WINGO           
1 41874U 16062F   17120.94022301  .00002551  00000-0  12511-3 0  9997
2 41874  51.6325 311.4617 0006688  77.2891  68.7741 15.21824154 23734
STARS-C                 
1 41895U 98067KR  17120.95124350  .00024099  00000-0  30282-3 0  9999
2 41895  51.6392 271.3800 0004263 145.0881 215.0392 15.59547348 20610
TANCREDO-1              
1 41931U 98067KT  17120.92429749  .00045246  00000-0  48171-3 0  9990
2 41931  51.6382 270.4411 0004655  95.4993 264.6533 15.63521086 16196
ITF-2                   
1 41932U 98067KU  17120.82550664  .00017288  00000-0  23183-3 0  9992
2 41932  51.6409 272.7934 0005687  93.7299 266.4344 15.58048751 16151
WASEDA-SAT3             
1 41933U 98067KV  17120.87976878  .00018606  00000-0  24548-3 0  9998
2 41933  51.6398 272.4041 0005472  94.9611 265.2006 15.58425956 16167
EGG                     
1 41934U 98067KW  17120.82997321  .00629007  00000-0  22522-2 0  9992
2 41934  51.6287 267.5168 0011923 311.9716  48.0271 15.86584458 16318
AOBA-VELOX 3            
1 41935U 98067KX  17120.82339621  .00018788  00000-0  24955-3 0  9997
2 41935  51.6406 272.7788 0005037  97.2174 262.9391 15.58241388 16253
TUPOD                   
1 41936U 98067KY  17120.81211445  .00074212  00000-0  71032-3 0  9992
2 41936  51.6378 270.4457 0002084  95.8836 264.2397 15.66008048 15666
OSNSAT                  
1 41939U 98067KZ  17120.79739621  .00033518  00000-0  39475-3 0  9992
2 41939  51.6390 271.8475 0005917  95.8617 264.3051 15.61052571 15510
FLOCK 3P-8              
1 41951U 17008D   17120.90846395  .00003704  00000-0  16492-3 0  9990
2 41951  97.4990 182.3469 0008352  10.6193 349.5218 15.22066883 11343
FLOCK 3P-51             
1 41952U 17008E   17120.88866399  .00005769  00000-0  25360-3 0  9991
2 41952  97.4995 182.3791 0008876  28.9236 331.2490 15.22257266 11345
FLOCK 3P-37             
1 41953U 17008F   17120.87598565  .00003436  00000-0  15078-3 0  9992
2 41953  97.4993 182.3919 0008401  33.7301 326.4468 15.22612117 11348
INS-1B                  
1 41954U 17008G   17120.92198365  .00002009  00000-0  92227-4 0  9990
2 41954  97.4972 182.3083 0009688   7.8459 352.2926 15.21557547 11285
FLOCK 3P-19             
1 41955U 17008H   17120.85129435  .00005731  00000-0  25473-3 0  9998
2 41955  97.4985 182.2661 0009160   9.7520 350.3892 15.21879975 11256
FLOCK 3P-24             
1 41956U 17008J   17120.85137960  .00006138  00000-0  27253-3 0  9991
2 41956  97.4985 182.2668 0008936   6.9195 353.2163 15.21890400 11339
FLOCK 3P-18             
1 41957U 17008K   17120.91765414  .00006194  00000-0  27523-3 0  9992
2 41957  97.4987 182.3332 0009126   7.2882 352.8485 15.21855581 11186
FLOCK 3P-22             
1 41958U 17008L   17120.91716576  .00006272  00000-0  27886-3 0  9997
2 41958  97.4986 182.3338 0008951   8.1634 351.9746 15.21831608 11175
FLOCK 3P-21             
1 41959U 17008M   17120.77956486  .00006437  00000-0  28528-3 0  9995
2 41959  97.4991 182.2134 0008882  11.1706 348.9725 15.21934634 11167
FLOCK 3P-28             
1 41960U 17008N   17120.91230141  .00004624  00000-0  20548-3 0  9996
2 41960  97.4990 182.3420 0008594   9.4309 350.7086 15.21995686 11262
FLOCK 3P-26             
1 41961U 17008P   17120.91504291  .00004341  00000-0  19374-3 0  9998
2 41961  97.4989 182.3379 0008844   8.2068 351.9311 15.21883739 11181
FLOCK 3P-17             
1 41962U 17008Q   17120.90707592  .00006231  00000-0  27465-3 0  9997
2 41962  97.4988 182.3487 0008714  11.3213 348.8217 15.22131653 11131
FLOCK 3P-27             
1 41963U 17008R   17120.85066225  .00005063  00000-0  22608-3 0  9999
2 41963  97.4989 182.2721 0008934   8.7917 351.3474 15.21779943 11175
FLOCK 3P-25             
1 41964U 17008S   17120.84729518  .00002963  00000-0  13306-3 0  9991
2 41964  97.4991 182.2739 0008683   9.9189 350.2217 15.21934590 11155
FLOCK 3P-4              
1 41965U 17008T   17120.91036837  .00004365  00000-0  19404-3 0  9998
2 41965  97.4991 182.3453 0008634  10.8120 349.3300 15.22018743 11260
FLOCK 3P 2              
1 41966U 17008U   17120.84469859  .00005316  00000-0  23558-3 0  9997
2 41966  97.4991 182.2814 0008449   9.6755 350.4642 15.22022101 11170
